NORAD_CAT_ID,OBJECT_NAME,OBJECT_TYPE,EPOCH,MEAN_MOTION,ECCENTRICITY,INCLINATION,RA_OF_ASC_NODE,ARG_OF_PERICENTER,MEAN_ANOMALY,BSTAR,MEAN_MOTION_DOT,MEAN_MOTION_DDOT,TLE_LINE0,TLE_LINE1,TLE_LINE2,SEMIMAJOR_AXIS,PERIOD,APOGEE,PERIGEE,DECAYED
52297.0,STARLINK-3758,PAYLOAD,2022-11-03 02:15:28,15.0882862,0.0001882,53.2172,187.5607,43.4005,316.7135,-4.4989e-05,-1.004e-05,0.0,0 STARLINK-3758,1 52297U 22041AN  22307.09408475 -.00001004  00000-0 -44989-4 0  9990,2 52297  53.2172 187.5607 0001882  43.4005 316.7135 15.08828620 31152,6917.915,95.438,541.082,538.4780000000002,0.0
52297.0,STARLINK-3758,PAYLOAD,2022-11-03 16:33:56,15.08828183,0.0001107999999999,53.2154,184.8857,53.1889,306.9204,0.00017058,2.427e-05,0.0,0 STARLINK-3758,1 52297U 22041AN  22307.69023607  .00002427  00000-0  17058-3 0  9990,2 52297  53.2154 184.8857 0001108  53.1889 306.9204 15.08828183 31240,6917.917,95.438,540.548,539.015,0.0
52297.0,STARLINK-3758,PAYLOAD,2022-11-04 00:30:51,15.08849456,0.0002085,53.2191,183.3936,41.1526,318.9623,0.00025076,3.706e-05,0.0,0 STARLINK-3758,1 52297U 22041AN  22308.02142389  .00003706  00000-0  25076-3 0  9997,2 52297  53.2191 183.3936 0002085  41.1526 318.9623 15.08849456 31292,6917.851,95.437,541.159,538.274,0.0
52297.0,STARLINK-3758,PAYLOAD,2022-11-04 08:27:46,15.08849991,0.000213,53.2198,181.9051,43.654,316.462,0.00023326,3.427e-05,0.0,0 STARLINK-3758,1 52297U 22041AN  22308.35262333  .00003427  00000-0  23326-3 0  9991,2 52297  53.2198 181.9051 0002130  43.6540 316.4620 15.08849991 30120,6917.85,95.437,541.188,538.241,0.0
52297.0,STARLINK-3758,PAYLOAD,2022-11-05 00:21:39,15.08834002,0.0001892,53.2172,178.9373,40.8468,319.2666,0.00011067,1.473e-05,0.0,0 STARLINK-3758,1 52297U 22041AN  22309.01503771  .00001473  00000-0  11067-3 0  9997,2 52297  53.2172 178.9373 0001892  40.8468 319.2666 15.08834002 30226,6917.899,95.438,541.073,538.455,0.0
52297.0,STARLINK-3758,PAYLOAD,2022-11-05 16:15:31,15.0883495,0.000176,53.2174,175.9632,43.0498,317.0632,-0.00020015,-3.472e-05,0.0,0 STARLINK-3758,1 52297U 22041AN  22309.67745022 -.00003472  00000-0 -20015-3 0  9992,2 52297  53.2174 175.9632 0001760  43.0498 317.0632 15.08834950 31542,6917.896,95.438,540.9780000000002,538.543,0.0
52297.0,STARLINK-3758,PAYLOAD,2022-11-06 00:12:27,15.08828057,0.0002075,53.2176,174.4767,43.4402,316.6753,-0.000216,-3.723e-05,0.0,0 STARLINK-3758,1 52297U 22041AN  22310.00865700 -.00003723  00000-0 -21600-3 0  9997,2 52297  53.2176 174.4767 0002075  43.4402 316.6753 15.08828057 31591,6917.917,95.438,541.217,538.346,0.0
52297.0,STARLINK-3758,PAYLOAD,2022-11-06 19:17:05,15.08846853,0.0002619,53.2165,170.9084,53.1439,306.9793,-0.0002173,-3.746e-05,0.0,0 STARLINK-3758,1 52297U 22041AN  22310.80353035 -.00003746  00000-0 -21730-3 0  9997,2 52297  53.2165 170.9084 0002619  53.1439 306.9793 15.08846853 31718,6917.859,95.437,541.536,537.913,0.0
52297.0,STARLINK-3758,PAYLOAD,2022-11-06 22:27:52,15.08724923,0.0002555,53.2169,170.3138,40.0253,320.0927,0.0013437999999999,0.00021096,0.0,0 STARLINK-3758,1 52297U 22041AN  22310.93602239  .00021096  00000-0  13438-2 0  9995,2 52297  53.2169 170.3138 0002555  40.0253 320.0927 15.08724923 31735,6918.232,95.445,541.865,538.33,0.0
52297.0,STARLINK-3758,PAYLOAD,2022-11-07 08:00:10,15.08832893,0.0002046,53.2167,168.5292,45.6145,314.5014,0.00011147,1.486e-05,0.0,0 STARLINK-3758,1 52297U 22041AN  22311.33345196  .00001486  00000-0  11147-3 0  9993,2 52297  53.2167 168.5292 0002046  45.6145 314.5014 15.08832893 31796,6917.901999999999,95.438,541.183,538.352,0.0
52297.0,STARLINK-3758,PAYLOAD,2022-11-07 14:21:42,15.08830347,0.0002044,53.217,167.3404,42.8912,317.2239,0.00020214,2.93e-05,0.0,0 STARLINK-3758,1 52297U 22041AN  22311.59841183  .00002930  00000-0  20214-3 0  9998,2 52297  53.2170 167.3404 0002044  42.8912 317.2239 15.08830347 30612,6917.91,95.438,541.189,538.361,0.0
52297.0,STARLINK-3758,PAYLOAD,2022-11-07 22:18:37,15.08840857,0.0002095,53.2166,165.8538,45.0541,315.0621,0.00027482,4.088e-05,0.0,0 STARLINK-3758,1 52297U 22041AN  22311.92960428  .00004088  00000-0  27482-3 0  9999,2 52297  53.2166 165.8538 0002095  45.0541 315.0621 15.08840857 31885,6917.878000000002,95.438,541.192,538.293,0.0
52297.0,STARLINK-3758,PAYLOAD,2022-11-08 22:09:23,15.08856813,0.0002191,53.216,161.3936,47.092,313.0256,0.00019576,2.8300000000000014e-05,0.0,0 STARLINK-3758,1 52297U 22041AN  22312.92319268  .00002830  00000-0  19576-3 0  9998,2 52297  53.2160 161.3936 0002191  47.0920 313.0256 15.08856813 32031,6917.829000000002,95.436,541.21,538.178,0.0
52297.0,STARLINK-3758,PAYLOAD,2022-11-09 20:24:50,15.08825231,0.000223,53.2154,157.2324,43.274,316.8427,-0.00020537,-3.554e-05,0.0,0 STARLINK-3758,1 52297U 22041AN  22313.85057909 -.00003554  00000-0 -20537-3 0  9997,2 52297  53.2154 157.2324 0002230  43.2740 316.8427 15.08825231 32177,6917.926,95.438,541.3330000000002,538.248,0.0
52297.0,STARLINK-3758,PAYLOAD,2022-11-09 23:35:36,15.08826433,0.00019,53.2156,156.6341,45.0718,315.0428,-0.00022357,-3.843e-05,0.0,0 STARLINK-3758,1 52297U 22041AN  22313.98305881 -.00003843  00000-0 -22357-3 0  9999,2 52297  53.2156 156.6341 0001900  45.0718 315.0428 15.08826433 30972,6917.922,95.438,541.101,538.472,0.0
52297.0,STARLINK-3758,PAYLOAD,2022-11-10 18:40:12,15.08840786,0.0002136,53.2177,153.07,46.8579,313.2591,-6.6567e-05,-1.348e-05,0.0,0 STARLINK-3758,1 52297U 22041AN  22314.77792610 -.00001348  00000-0 -66567-4 0  9997,2 52297  53.2177 153.0700 0002136  46.8579 313.2591 15.08840786 32319,6917.878000000002,95.438,541.221,538.265,0.0
52297.0,STARLINK-3758,PAYLOAD,2022-11-10 20:15:35,15.08845784,0.0001947,53.217,152.7691,42.2617,317.8525,-0.00010888,-2.021e-05,0.0,0 STARLINK-3758,1 52297U 22041AN  22314.84416204 -.00002021  00000-0 -10888-3 0  9990,2 52297  53.2170 152.7691 0001947  42.2617 317.8525 15.08845784 31105,6917.863,95.437,541.075,538.381,0.0
52297.0,STARLINK-3758,PAYLOAD,2022-11-11 05:47:54,15.08848342,0.00022,53.2174,150.9854,43.4732,316.6433,-7.4429e-05,-1.473e-05,0.0,0 STARLINK-3758,1 52297U 22041AN  22315.24159890 -.00001473  00000-0 -74429-4 0  9992,2 52297  53.2174 150.9854 0002200  43.4732 316.6433 15.08848342 32383,6917.855,95.437,541.242,538.198,0.0
52297.0,STARLINK-3758,PAYLOAD,2022-11-11 20:06:23,15.08820098,0.0001885,53.2164,148.3079,36.2203,323.8916,0.00016129,2.278e-05,0.0,0 STARLINK-3758,1 52297U 22041AN  22315.83777289  .00002278  00000-0  16129-3 0  9999,2 52297  53.2164 148.3079 0001885  36.2203 323.8916 15.08820098 32477,6917.941,95.439,541.11,538.502,0.0
52297.0,STARLINK-3758,PAYLOAD,2022-11-12 05:38:42,15.08825421,0.0001976,53.2169,146.5253,39.3367,320.7769,0.00011168,1.489e-05,0.0,0 STARLINK-3758,1 52297U 22041AN  22316.23521526  .00001489  00000-0  11168-3 0  9996,2 52297  53.2169 146.5253 0001976  39.3367 320.7769 15.08825421 31311,6917.925,95.438,541.1569999999998,538.423,0.0
52297.0,STARLINK-3758,PAYLOAD,2022-11-12 18:21:47,15.08835326,0.000205,53.2167,144.1462,40.0616,320.0527,6.2705e-05,7.1e-06,0.0,0 STARLINK-3758,1 52297U 22041AN  22316.76513200  .00000710  00000-0  62705-4 0  9994,2 52297  53.2167 144.1462 0002050  40.0616 320.0527 15.08835326 32619,6917.895,95.438,541.178,538.342,0.0
52297.0,STARLINK-3758,PAYLOAD,2022-11-12 19:57:10,15.08838057,0.0002048,53.2168,143.849,39.613,320.5011,3.4523e-05,2.61e-06,0.0,0 STARLINK-3758,1 52297U 22041AN  22316.83137134  .00000261  00000-0  34523-4 0  9998,2 52297  53.2168 143.8490 0002048  39.6130 320.5011 15.08838057 31402,6917.886,95.438,541.168,538.335,0.0
52297.0,STARLINK-3758,PAYLOAD,2022-11-13 11:51:01,15.08837881,0.0001989,53.2166,140.875,40.4494,319.6646,9.8389e-05,1.278e-05,0.0,0 STARLINK-3758,1 52297U 22041AN  22317.49376952  .00001278  00000-0  98389-4 0  9993,2 52297  53.2166 140.8750 0001989  40.4494 319.6646 15.08837881 31500,6917.887,95.438,541.128,538.376,0.0
52297.0,STARLINK-3758,PAYLOAD,2022-11-13 18:12:34,15.08829995,0.0002018,53.2167,139.6854,40.6663,319.448,3.9713e-05,3.44e-06,0.0,0 STARLINK-3758,1 52297U 22041AN  22317.75873769  .00000344  00000-0  39713-4 0  9999,2 52297  53.2167 139.6854 0002018  40.6663 319.4480 15.08829995 31541,6917.911,95.438,541.172,538.38,0.0
52297.0,STARLINK-3758,PAYLOAD,2022-11-14 00:34:07,15.08828668,0.0002041,53.2167,138.496,40.1369,319.9773,2.1022e-05,4.6e-07,0.0,0 STARLINK-3758,1 52297U 22041AN  22318.02370080  .00000046  00000-0  21022-4 0  9991,2 52297  53.2167 138.4960 0002041  40.1369 319.9773 15.08828668 32806,6917.915,95.438,541.192,538.368,0.0
52297.0,STARLINK-3758,PAYLOAD,2022-11-14 11:41:49,15.0883181,0.0002063,53.2168,136.4143,40.9987,319.116,2.3842e-05,9.1e-07,0.0,0 STARLINK-3758,1 52297U 22041AN  22318.48738130  .00000091  00000-0  23842-4 0  9997,2 52297  53.2168 136.4143 0002063  40.9987 319.1160 15.08831810 31653,6917.905,95.438,541.198,538.3430000000002,0.0
52297.0,STARLINK-3758,PAYLOAD,2022-11-14 18:03:22,15.08836746,0.0002039,53.2167,135.2248,41.6414,318.4733,9.8064e-06,-1.32e-06,0.0,0 STARLINK-3758,1 52297U 22041AN  22318.75233936 -.00000132  00000-0  98064-5 0  9997,2 52297  53.2167 135.2248 0002039  41.6414 318.4733 15.08836746 32912,6917.89,95.438,541.1659999999998,538.345,0.0
52297.0,STARLINK-3758,PAYLOAD,2022-11-15 11:32:36,15.08837919,0.0001963,53.217,131.9536,41.1135,319.0005,5.539e-05,5.93e-06,0.0,0 STARLINK-3758,1 52297U 22041AN  22319.48097753  .00000593  00000-0  55390-4 0  9997,2 52297  53.2170 131.9536 0001963  41.1135 319.0005 15.08837919 31808,6917.887,95.438,541.11,538.394,0.0
52297.0,STARLINK-3758,PAYLOAD,2022-11-15 17:54:08,15.08838269,0.0002096,53.2168,130.7649,41.1702,318.9448,0.0001194,1.612e-05,0.0,0 STARLINK-3758,1 52297U 22041AN  22319.74593565  .00001612  00000-0  11940-3 0  9993,2 52297  53.2168 130.7649 0002096  41.1702 318.9448 15.08838269 31847,6917.886,95.438,541.201,538.3009999999998,0.0
